{"type": "FeatureCollection", "features": [ {"type": "Feature", "properties": {"norad_id": 32126, "name": "FENGYUN 1C DEB", "group": "fengyun-1c-debris", "lat": -33.7982546598772, "lon": 35.22126655760491, "alt_km": 903.5635872221874, "timestamp": "2025-12-11T05:00:26.594020+00:00", "meta": {"OBJECT_NAME": "FENGYUN 1C DEB", "OBJECT_ID": "1999-025CRU", "EPOCH": "2025-12-08T21:03:50.440032", "MEAN_MOTION": 13.56787693, "ECCENTRICITY": 0.0281203, "INCLINATION": 99.1098, "RA_OF_ASC_NODE": 219.2267, "ARG_OF_PERICENTER": 265.4353, "MEAN_ANOMALY": 91.4619, "EPHEMERIS_TYPE": 0, "CLASSIFICATION_TYPE": "U", "NORAD_CAT_ID": 32126, "ELEMENT_SET_NO": 999, "REV_AT_EPOCH": 61662, "BSTAR": 0.0016621, "MEAN_MOTION_DOT": 1.479e-05, "MEAN_MOTION_DDOT": 0}, "tle": {"line1": "1 32126U 99025CRU 25342.87766713  .00001479  00000+0  16621-2 0  9998", "line2": "2 32126  99.1098 219.2267 0281203 265.4353  91.4619 13.56787693616621"}}, "geometry": {"type": "Point", "coordinates": [35.22126655760491, -33.7982546598772]}}, {"type": "Feature", "properties": {"norad_id": 32128, "name": "FENGYUN 1C DEB", "group": "fengyun-1c-debris", "lat": -43.51671882560678, "lon": 40.144492618595024, "alt_km": 903.0670892047365, "timestamp": "2025-12-11T05:00:26.594030+00:00", "meta": {"OBJECT_NAME": "FENGYUN 1C DEB", "OBJECT_ID": "1999-025CRW", "EPOCH": "2025-12-10T20:36:45.149760", "MEAN_MOTION": 13.94210938, "ECCENTRICITY": 0.03969973, "INCLINATION": 99.0305, "RA_OF_ASC_NODE": 31.1166, "ARG_OF_PERICENTER": 228.0217, "MEAN_ANOMALY": 128.649, "EPHEMERIS_TYPE": 0, "CLASSIFICATION_TYPE": "U", "NORAD_CAT_ID": 32128, "ELEMENT_SET_NO": 999, "REV_AT_EPOCH": 62959, "BSTAR": 0.00098697823, "MEAN_MOTION_DOT": 2.477e-05, "MEAN_MOTION_DDOT": 0}, "tle": {"line1": "1 32128U 99025CRW 25344.85885590  .00002477  00000+0  98698-3 0  9999", "line2": "2 32128  99.0305  31.1166 0396997 228.0217 128.6490 13.94210938629598"}}, "geometry": {"type": "Point", "coordinates": [40.144492618595024, -43.51671882560678]}}, {"type": "Feature", "properties": {"norad_id": 32129, "name": "FENGYUN 1C DEB", "group": "fengyun-1c-debris", "lat": 14.780099363261655, "lon": 101.13820196073569, "alt_km": 752.9544706221213, "timestamp": "2025-12-11T05:00:26.594041+00:00", "meta": {"OBJECT_NAME": "FENGYUN 1C DEB", "OBJECT_ID": "1999-025CRX", "EPOCH": "2025-12-09T20:01:06.847392", "MEAN_MOTION": 14.28446291, "ECCENTRICITY": 0.00678752, "INCLINATION": 99.0593, "RA_OF_ASC_NODE": 102.1246, "ARG_OF_PERICENTER": 42.5941, "MEAN_ANOMALY": 108.2977, "EPHEMERIS_TYPE": 0, "CLASSIFICATION_TYPE": "U", "NORAD_CAT_ID": 32129, "ELEMENT_SET_NO": 999, "REV_AT_EPOCH": 94185, "BSTAR": 0.0034133013, "MEAN_MOTION_DOT": 8.719e-05, "MEAN_MOTION_DDOT": 0}, "tle": {"line1": "1 32129U 99025CRX 25343.83410703  .00008719  00000+0  34133-2 0  9995", "line2": "2 32129  99.0593 102.1246 0067875  42.5941 108.2977 14.28446291941850"}}, "geometry": {"type": "Point", "coordinates": [101.13820196073569, 14.780099363261655]}}, {"type": "Feature", "properties": {"norad_id": 32130, "name": "FENGYUN 1C DEB", "group": "fengyun-1c-debris", "lat": -11.060447806819296, "lon": -30.091804380222026, "alt_km": 818.3042867640679, "timestamp": "2025-12-11T05:00:26.594051+00:00", "meta": {"OBJECT_NAME": "FENGYUN 1C DEB", "OBJECT_ID": "1999-025CRY", "EPOCH": "2025-12-08T04:17:13.347744", "MEAN_MOTION": 14.37529409, "ECCENTRICITY": 0.00826658, "INCLINATION": 98.9036, "RA_OF_ASC_NODE": 148.5278, "ARG_OF_PERICENTER": 343.691, "MEAN_ANOMALY": 16.1618, "EPHEMERIS_TYPE": 0, "CLASSIFICATION_TYPE": "U", "NORAD_CAT_ID": 32130, "ELEMENT_SET_NO": 999, "REV_AT_EPOCH": 96169, "BSTAR": 0.00073105734, "MEAN_MOTION_DOT": 2.23e-05, "MEAN_MOTION_DDOT": 0}, "tle": {"line1": "1 32130U 99025CRY 25342.17862671  .00002230  00000+0  73106-3 0  9994", "line2": "2 32130  98.9036 148.5278 0082665 343.6910  16.1618 14.37529409961692"}}, "geometry": {"type": "Point", "coordinates": [-30.091804380222026, -11.060447806819296]}}, {"type": "Feature", "properties": {"norad_id": 32133, "name": "FENGYUN 1C DEB", "group": "fengyun-1c-debris", "lat": -46.0507202963895, "lon": -4.65596199158374, "alt_km": 861.7214367752495, "timestamp": "2025-12-11T05:00:26.594061+00:00", "meta": {"OBJECT_NAME": "FENGYUN 1C DEB", "OBJECT_ID": "1999-025CSB", "EPOCH": "2025-12-10T17:22:27.715296", "MEAN_MOTION": 14.18068885, "ECCENTRICITY": 0.00364001, "INCLINATION": 98.4318, "RA_OF_ASC_NODE": 346.0323, "ARG_OF_PERICENTER": 106.5448, "MEAN_ANOMALY": 253.9732, "EPHEMERIS_TYPE": 0, "CLASSIFICATION_TYPE": "U", "NORAD_CAT_ID": 32133, "ELEMENT_SET_NO": 999, "REV_AT_EPOCH": 94946, "BSTAR": 0.00027593016, "MEAN_MOTION_DOT": 5.29e-06, "MEAN_MOTION_DDOT": 0}, "tle": {"line1": "1 32133U 99025CSB 25344.72393189  .00000529  00000+0  27593-3 0  9991", "line2": "2 32133  98.4318 346.0323 0036400 106.5448 253.9732 14.18068885949461"}}, "geometry": {"type": "Point", "coordinates": [-4.65596199158374, -46.0507202963895]}}, {"type": "Feature", "properties": {"norad_id": 32134, "name": "FENGYUN 1C DEB", "group": "fengyun-1c-debris", "lat": 36.27696530145005, "lon": 174.81141795956165, "alt_km": 921.0747144508614, "timestamp": "2025-12-11T05:00:26.594071+00:00", "meta": {"OBJECT_NAME": "FENGYUN 1C DEB", "OBJECT_ID": "1999-025CSC", "EPOCH": "2025-12-07T11:31:51.559104", "MEAN_MOTION": 14.2152476, "ECCENTRICITY": 0.02590088, "INCLINATION": 98.594, "RA_OF_ASC_NODE": 344.8046, "ARG_OF_PERICENTER": 278.9279, "MEAN_ANOMALY": 238.3835, "EPHEMERIS_TYPE": 0, "CLASSIFICATION_TYPE": "U", "NORAD_CAT_ID": 32134, "ELEMENT_SET_NO": 999, "REV_AT_EPOCH": 95072, "BSTAR": 0.001182529, "MEAN_MOTION_DOT": 3.592e-05, "MEAN_MOTION_DDOT": 0}, "tle": {"line1": "1 32134U 99025CSC 25341.48045786  .00003592  00000+0  11825-2 0  9992", "line2": "2 32134  98.5940 344.8046 0259008 278.9279 238.3835 14.21524760950724"}}, "geometry": {"type": "Point", "coordinates": [174.81141795956165, 36.27696530145005]}}, {"type": "Feature", "properties": {"norad_id": 32137, "name": "FENGYUN 1C DEB", "group": "fengyun-1c-debris", "lat": -47.284182635231716, "lon": 121.62808716213753, "alt_km": 622.6199006397219, "timestamp": "2025-12-11T05:00:26.594081+00:00", "meta": {"OBJECT_NAME": "FENGYUN 1C DEB", "OBJECT_ID": "1999-025CSF", "EPOCH": "2025-12-06T14:58:18.861024", "MEAN_MOTION": 14.81103576, "ECCENTRICITY": 0.01882049, "INCLINATION": 98.4431, "RA_OF_ASC_NODE": 107.5404, "ARG_OF_PERICENTER": 53.6795, "MEAN_ANOMALY": 308.1629, "EPHEMERIS_TYPE": 0, "CLASSIFICATION_TYPE": "U", "NORAD_CAT_ID": 32137, "ELEMENT_SET_NO": 999, "REV_AT_EPOCH": 66640, "BSTAR": 0.0012837364, "MEAN_MOTION_DOT": 0.00013499, "MEAN_MOTION_DDOT": 0}, "tle": {"line1": "1 32137U 99025CSF 25340.62382941  .00013499  00000+0  12837-2 0  9998", "line2": "2 32137  98.4431 107.5404 0188204  53.6795 308.1629 14.81103576666403"}}, "geometry": {"type": "Point", "coordinates": [121.62808716213753, -47.284182635231716]}}, {"type": "Feature", "properties": {"norad_id": 32141, "name": "FENGYUN 1C DEB", "group": "fengyun-1c-debris", "lat": 4.255007088623822, "lon": -12.990367060721471, "alt_km": 930.6400358827204, "timestamp": "2025-12-11T05:00:26.594091+00:00", "meta": {"OBJECT_NAME": "FENGYUN 1C DEB", "OBJECT_ID": "1999-025CSK", "EPOCH": "2025-11-20T23:04:46.058016", "MEAN_MOTION": 14.03501767, "ECCENTRICITY": 0.00731678, "INCLINATION": 98.7436, "RA_OF_ASC_NODE": 328.1999, "ARG_OF_PERICENTER": 269.2169, "MEAN_ANOMALY": 90.0615, "EPHEMERIS_TYPE": 0, "CLASSIFICATION_TYPE": "U", "NORAD_CAT_ID": 32141, "ELEMENT_SET_NO": 999, "REV_AT_EPOCH": 94638, "BSTAR": 0.00056632309, "MEAN_MOTION_DOT": 8.66e-06, "MEAN_MOTION_DDOT": 0}, "tle": {"line1": "1 32141U 99025CSK 25324.96164419  .00000866  00000+0  56632-3 0  9996", "line2": "2 32141  98.7436 328.1999 0073167 269.2169  90.0615 14.03501767946385"}}, "geometry": {"type": "Point", "coordinates": [-12.990367060721471, 4.255007088623822]}}, {"type": "Feature", "properties": {"norad_id": 32143, "name": "FENGYUN 1C DEB", "group": "fengyun-1c-debris", "lat": -67.62390896669808, "lon": 120.63367977252932, "alt_km": 893.3887821633198, "timestamp": "2025-12-11T05:00:26.594121+00:00", "meta": {"OBJECT_NAME": "FENGYUN 1C DEB", "OBJECT_ID": "1999-025CSM", "EPOCH": "2025-12-03T04:28:30.343584", "MEAN_MOTION": 14.17959367, "ECCENTRICITY": 0.01041232, "INCLINATION": 98.5963, "RA_OF_ASC_NODE": 314.4234, "ARG_OF_PERICENTER": 136.0042, "MEAN_ANOMALY": 224.9481, "EPHEMERIS_TYPE": 0, "CLASSIFICATION_TYPE": "U", "NORAD_CAT_ID": 32143, "ELEMENT_SET_NO": 999, "REV_AT_EPOCH": 95798, "BSTAR": 0.00020859227, "MEAN_MOTION_DOT": 4.09e-06, "MEAN_MOTION_DDOT": 0}, "tle": {"line1": "1 32143U 99025CSM 25337.18646231  .00000409  00000+0  20859-3 0  9998", "line2": "2 32143  98.5963 314.4234 0104123 136.0042 224.9481 14.17959367957983"}}, "geometry": {"type": "Point", "coordinates": [120.63367977252932, -67.62390896669808]}}, {"type": "Feature", "properties": {"norad_id": 32150, "name": "FENGYUN 1C DEB", "group": "fengyun-1c-debris", "lat": -26.94299872592326, "lon": -176.83250799962772, "alt_km": 781.5644086676302, "timestamp": "2025-12-11T05:00:26.594134+00:00", "meta": {"OBJECT_NAME": "FENGYUN 1C DEB", "OBJECT_ID": "1999-025CSU", "EPOCH": "2025-12-10T19:51:23.325120", "MEAN_MOTION": 14.60663641, "ECCENTRICITY": 0.01719717, "INCLINATION": 99.1924, "RA_OF_ASC_NODE": 7.4657, "ARG_OF_PERICENTER": 73.429, "MEAN_ANOMALY": 288.5717, "EPHEMERIS_TYPE": 0, "CLASSIFICATION_TYPE": "U", "NORAD_CAT_ID": 32150, "ELEMENT_SET_NO": 999, "REV_AT_EPOCH": 97678, "BSTAR": 0.00021287753, "MEAN_MOTION_DOT": 1.21e-05, "MEAN_MOTION_DDOT": 0}, "tle": {"line1": "1 32150U 99025CSU 25344.82735330  .00001210  00000+0  21288-3 0  9992", "line2": "2 32150  99.1924   7.4657 0171971  73.4290 288.5717 14.60663641976789"}}, "geometry": {"type": "Point", "coordinates": [-176.83250799962772, -26.94299872592326]}}]}